{"type": "FeatureCollection", "features": [ {"type": "Feature", "properties": {"norad_id": 17070, "name": "POLAR BEAR", "group": "nnss", "lat": -5.538592744076746, "lon": 4.207368379886746, "alt_km": 960.88087307359, "timestamp": "2025-12-02T19:35:50.824394+00:00", "meta": {"OBJECT_NAME": "POLAR BEAR", "OBJECT_ID": "1986-088A", "EPOCH": "2025-12-02T12:01:19.378272", "MEAN_MOTION": 13.7524755, "ECCENTRICITY": 0.004021, "INCLINATION": 89.6181, "RA_OF_ASC_NODE": 184.183, "ARG_OF_PERICENTER": 149.0997, "MEAN_ANOMALY": 274.2879, "EPHEMERIS_TYPE": 0, "CLASSIFICATION_TYPE": "U", "NORAD_CAT_ID": 17070, "ELEMENT_SET_NO": 999, "REV_AT_EPOCH": 95838, "BSTAR": 0.00014048, "MEAN_MOTION_DOT": 1.47e-06, "MEAN_MOTION_DDOT": 0}, "tle": {"line1": "1 17070U 86088A   25336.50091873  .00000147  00000+0  14048-3 0  9998", "line2": "2 17070  89.6181 184.1830 0040210 149.0997 274.2879 13.75247550958382"}}, "geometry": {"type": "Point", "coordinates": [4.207368379886746, -5.538592744076746]}}, {"type": "Feature", "properties": {"norad_id": 18361, "name": "OSCAR 27", "group": "nnss", "lat": 84.79980241948786, "lon": 74.78341066206751, "alt_km": 1158.3144722245552, "timestamp": "2025-12-02T19:35:50.824405+00:00", "meta": {"OBJECT_NAME": "OSCAR 27", "OBJECT_ID": "1987-080A", "EPOCH": "2025-12-02T08:27:25.357248", "MEAN_MOTION": 13.44903269, "ECCENTRICITY": 0.0102304, "INCLINATION": 90.3742, "RA_OF_ASC_NODE": 78.8837, "ARG_OF_PERICENTER": 253.9632, "MEAN_ANOMALY": 105.023, "EPHEMERIS_TYPE": 0, "CLASSIFICATION_TYPE": "U", "NORAD_CAT_ID": 18361, "ELEMENT_SET_NO": 999, "REV_AT_EPOCH": 87417, "BSTAR": 0.00020526, "MEAN_MOTION_DOT": 1.31e-06, "MEAN_MOTION_DDOT": 0}, "tle": {"line1": "1 18361U 87080A   25336.35237682  .00000131  00000+0  20526-3 0  9999", "line2": "2 18361  90.3742  78.8837 0102304 253.9632 105.0230 13.44903269874176"}}, "geometry": {"type": "Point", "coordinates": [74.78341066206751, 84.79980241948786]}}, {"type": "Feature", "properties": {"norad_id": 18362, "name": "OSCAR 29", "group": "nnss", "lat": 66.70042635348588, "lon": -99.76807799512619, "alt_km": 1160.3018355885506, "timestamp": "2025-12-02T19:35:50.824415+00:00", "meta": {"OBJECT_NAME": "OSCAR 29", "OBJECT_ID": "1987-080B", "EPOCH": "2025-12-02T08:38:59.850816", "MEAN_MOTION": 13.44445358, "ECCENTRICITY": 0.010368, "INCLINATION": 90.3756, "RA_OF_ASC_NODE": 79.3421, "ARG_OF_PERICENTER": 277.3797, "MEAN_ANOMALY": 149.7895, "EPHEMERIS_TYPE": 0, "CLASSIFICATION_TYPE": "U", "NORAD_CAT_ID": 18362, "ELEMENT_SET_NO": 999, "REV_AT_EPOCH": 87370, "BSTAR": 0.00016294, "MEAN_MOTION_DOT": 1.05e-06, "MEAN_MOTION_DDOT": 0}, "tle": {"line1": "1 18362U 87080B   25336.36041494  .00000105  00000+0  16294-3 0  9993", "line2": "2 18362  90.3756  79.3421 0103680 277.3797 149.7895 13.44445358873707"}}, "geometry": {"type": "Point", "coordinates": [-99.76807799512619, 66.70042635348588]}}, {"type": "Feature", "properties": {"norad_id": 19070, "name": "OSCAR 23", "group": "nnss", "lat": 58.739353809338695, "lon": -163.3834489938366, "alt_km": 1137.8282515640403, "timestamp": "2025-12-02T19:35:50.824426+00:00", "meta": {"OBJECT_NAME": "OSCAR 23", "OBJECT_ID": "1988-033A", "EPOCH": "2025-12-02T04:51:39.200256", "MEAN_MOTION": 13.2778468, "ECCENTRICITY": 0.0188665, "INCLINATION": 90.3226, "RA_OF_ASC_NODE": 16.0656, "ARG_OF_PERICENTER": 209.2712, "MEAN_ANOMALY": 220.7503, "EPHEMERIS_TYPE": 0, "CLASSIFICATION_TYPE": "U", "NORAD_CAT_ID": 19070, "ELEMENT_SET_NO": 999, "REV_AT_EPOCH": 82113, "BSTAR": 0.00022751, "MEAN_MOTION_DOT": 1.21e-06, "MEAN_MOTION_DDOT": 0}, "tle": {"line1": "1 19070U 88033A   25336.20253704  .00000121  00000+0  22751-3 0  9994", "line2": "2 19070  90.3226  16.0656 0188665 209.2712 220.7503 13.27784680821132"}}, "geometry": {"type": "Point", "coordinates": [-163.3834489938366, 58.739353809338695]}}, {"type": "Feature", "properties": {"norad_id": 19071, "name": "OSCAR 32", "group": "nnss", "lat": -49.00098234494543, "lon": -164.15554549115302, "alt_km": 1044.197260939899, "timestamp": "2025-12-02T19:35:50.824436+00:00", "meta": {"OBJECT_NAME": "OSCAR 32", "OBJECT_ID": "1988-033B", "EPOCH": "2025-12-02T09:27:52.424064", "MEAN_MOTION": 13.27951817, "ECCENTRICITY": 0.0187498, "INCLINATION": 90.3228, "RA_OF_ASC_NODE": 16.2028, "ARG_OF_PERICENTER": 195.5616, "MEAN_ANOMALY": 174.9323, "EPHEMERIS_TYPE": 0, "CLASSIFICATION_TYPE": "U", "NORAD_CAT_ID": 19071, "ELEMENT_SET_NO": 999, "REV_AT_EPOCH": 82128, "BSTAR": 0.00017843, "MEAN_MOTION_DOT": 9.7e-07, "MEAN_MOTION_DDOT": 0}, "tle": {"line1": "1 19071U 88033B   25336.39435676  .00000097  00000+0  17843-3 0  9993", "line2": "2 19071  90.3228  16.2028 0187498 195.5616 174.9323 13.27951817821287"}}, "geometry": {"type": "Point", "coordinates": [-164.15554549115302, -49.00098234494543]}}, {"type": "Feature", "properties": {"norad_id": 19223, "name": "NOVA 2", "group": "nnss", "lat": -63.87775402752969, "lon": -101.68938794362806, "alt_km": 1203.072134699837, "timestamp": "2025-12-02T19:35:50.824446+00:00", "meta": {"OBJECT_NAME": "NOVA 2", "OBJECT_ID": "1988-052A", "EPOCH": "2025-12-02T07:46:37.057728", "MEAN_MOTION": 13.2293391, "ECCENTRICITY": 0.0031413, "INCLINATION": 89.9873, "RA_OF_ASC_NODE": 78.2853, "ARG_OF_PERICENTER": 44.9309, "MEAN_ANOMALY": 14.7161, "EPHEMERIS_TYPE": 0, "CLASSIFICATION_TYPE": "U", "NORAD_CAT_ID": 19223, "ELEMENT_SET_NO": 999, "REV_AT_EPOCH": 80810, "BSTAR": 0.00014832, "MEAN_MOTION_DOT": 7.1e-07, "MEAN_MOTION_DDOT": 0}, "tle": {"line1": "1 19223U 88052A   25336.32404002  .00000071  00000+0  14832-3 0  9992", "line2": "2 19223  89.9873  78.2853 0031413  44.9309  14.7161 13.22933910808107"}}, "geometry": {"type": "Point", "coordinates": [-101.68938794362806, -63.87775402752969]}}, {"type": "Feature", "properties": {"norad_id": 19419, "name": "OSCAR 25", "group": "nnss", "lat": -21.320708135181597, "lon": 20.225150761712246, "alt_km": 1073.4889426865639, "timestamp": "2025-12-02T19:35:50.824457+00:00", "meta": {"OBJECT_NAME": "OSCAR 25", "OBJECT_ID": "1988-074A", "EPOCH": "2025-12-02T09:01:29.380800", "MEAN_MOTION": 13.42620226, "ECCENTRICITY": 0.0094205, "INCLINATION": 90.0358, "RA_OF_ASC_NODE": 20.2096, "ARG_OF_PERICENTER": 275.9556, "MEAN_ANOMALY": 93.8712, "EPHEMERIS_TYPE": 0, "CLASSIFICATION_TYPE": "U", "NORAD_CAT_ID": 19419, "ELEMENT_SET_NO": 999, "REV_AT_EPOCH": 82501, "BSTAR": 0.00023198, "MEAN_MOTION_DOT": 1.43e-06, "MEAN_MOTION_DDOT": 0}, "tle": {"line1": "1 19419U 88074A   25336.37603450  .00000143  00000+0  23198-3 0  9991", "line2": "2 19419  90.0358  20.2096 0094205 275.9556  93.8712 13.42620226825013"}}, "geometry": {"type": "Point", "coordinates": [20.225150761712246, -21.320708135181597]}}, {"type": "Feature", "properties": {"norad_id": 19420, "name": "OSCAR 31", "group": "nnss", "lat": -42.29174882278563, "lon": -159.47449052463674, "alt_km": 1058.495403250603, "timestamp": "2025-12-02T19:35:50.824468+00:00", "meta": {"OBJECT_NAME": "OSCAR 31", "OBJECT_ID": "1988-074B", "EPOCH": "2025-12-02T09:35:47.332896", "MEAN_MOTION": 13.42581997, "ECCENTRICITY": 0.0092429, "INCLINATION": 90.0374, "RA_OF_ASC_NODE": 20.558, "ARG_OF_PERICENTER": 269.9957, "MEAN_ANOMALY": 100.0922, "EPHEMERIS_TYPE": 0, "CLASSIFICATION_TYPE": "U", "NORAD_CAT_ID": 19420, "ELEMENT_SET_NO": 999, "REV_AT_EPOCH": 82512, "BSTAR": 0.00019665, "MEAN_MOTION_DOT": 1.22e-06, "MEAN_MOTION_DDOT": 0}, "tle": {"line1": "1 19420U 88074B   25336.39985339  .00000122  00000+0  19665-3 0  9995", "line2": "2 19420  90.0374  20.5580 0092429 269.9957 100.0922 13.42581997825125"}}, "geometry": {"type": "Point", "coordinates": [-159.47449052463674, -42.29174882278563]}}]}